[{"OBJECT_NAME":"COSMOS 2390","OBJECT_ID":"2002-036A","EPOCH":"2026-04-01T04:39:11.264832","MEAN_MOTION":12.44620974,"ECCENTRICITY":0.0026666,"INCLINATION":82.4862,"RA_OF_ASC_NODE":33.0897,"ARG_OF_PERICENTER":67.136,"MEAN_ANOMALY":293.2532,"EPHEMERIS_TYPE":0,"CLASSIFICATION_TYPE":"U","NORAD_CAT_ID":27464,"ELEMENT_SET_NO":999,"REV_AT_EPOCH":7809,"BSTAR":8.5614e-5,"MEAN_MOTION_DOT":2.2e-7,"MEAN_MOTION_DDOT":0},{"OBJECT_NAME":"COSMOS 2391","OBJECT_ID":"2002-036B","EPOCH":"2026-04-01T05:31:56.620416","MEAN_MOTION":12.44943765,"ECCENTRICITY":0.0027496,"INCLINATION":82.4865,"RA_OF_ASC_NODE":29.6318,"ARG_OF_PERICENTER":61.4488,"MEAN_ANOMALY":298.9355,"EPHEMERIS_TYPE":0,"CLASSIFICATION_TYPE":"U","NORAD_CAT_ID":27465,"ELEMENT_SET_NO":999,"REV_AT_EPOCH":7827,"BSTAR":0.00011419,"MEAN_MOTION_DOT":2.6e-7,"MEAN_MOTION_DDOT":0},{"OBJECT_NAME":"INTELSAT 906 (IS-906)","OBJECT_ID":"2002-041A","EPOCH":"2026-03-31T21:48:48.117600","MEAN_MOTION":1.00271417,"ECCENTRICITY":0.0003321,"INCLINATION":5.607,"RA_OF_ASC_NODE":73.857,"ARG_OF_PERICENTER":305.677,"MEAN_ANOMALY":201.0888,"EPHEMERIS_TYPE":0,"CLASSIFICATION_TYPE":"U","NORAD_CAT_ID":27513,"ELEMENT_SET_NO":999,"REV_AT_EPOCH":8625,"BSTAR":0,"MEAN_MOTION_DOT":6.0e-8,"MEAN_MOTION_DDOT":0},{"OBJECT_NAME":"LATINSAT B","OBJECT_ID":"2002-058B","EPOCH":"2026-04-01T04:06:46.202112","MEAN_MOTION":14.76910329,"ECCENTRICITY":0.0086334,"INCLINATION":64.5529,"RA_OF_ASC_NODE":126.6927,"ARG_OF_PERICENTER":285.0205,"MEAN_ANOMALY":74.1355,"EPHEMERIS_TYPE":0,"CLASSIFICATION_TYPE":"U","NORAD_CAT_ID":27606,"ELEMENT_SET_NO":999,"REV_AT_EPOCH":25072,"BSTAR":0.00013273,"MEAN_MOTION_DOT":8.43e-6,"MEAN_MOTION_DDOT":0},{"OBJECT_NAME":"SAUDISAT 1C (SO-50)","OBJECT_ID":"2002-058C","EPOCH":"2026-04-01T03:26:07.821312","MEAN_MOTION":14.82870952,"ECCENTRICITY":0.0075451,"INCLINATION":64.5556,"RA_OF_ASC_NODE":7.326,"ARG_OF_PERICENTER":276.5367,"MEAN_ANOMALY":82.7154,"EPHEMERIS_TYPE":0,"CLASSIFICATION_TYPE":"U","NORAD_CAT_ID":27607,"ELEMENT_SET_NO":999,"REV_AT_EPOCH":25303,"BSTAR":0.00024289,"MEAN_MOTION_DOT":1.917e-5,"MEAN_MOTION_DDOT":0},{"OBJECT_NAME":"LATINSAT A","OBJECT_ID":"2002-058H","EPOCH":"2026-03-31T14:20:11.662080","MEAN_MOTION":14.85326578,"ECCENTRICITY":0.0056124,"INCLINATION":64.5545,"RA_OF_ASC_NODE":202.5431,"ARG_OF_PERICENTER":259.6266,"MEAN_ANOMALY":99.8512,"EPHEMERIS_TYPE":0,"CLASSIFICATION_TYPE":"U","NORAD_CAT_ID":27612,"ELEMENT_SET_NO":999,"REV_AT_EPOCH":25610,"BSTAR":0.00021052,"MEAN_MOTION_DOT":1.711e-5,"MEAN_MOTION_DDOT":0},{"OBJECT_NAME":"NIMIQ 2","OBJECT_ID":"2002-062A","EPOCH":"2026-03-31T22:41:58.020288","MEAN_MOTION":1.00272192,"ECCENTRICITY":0.0006565,"INCLINATION":9.2693,"RA_OF_ASC_NODE":57.6983,"ARG_OF_PERICENTER":314.0084,"MEAN_ANOMALY":48.9007,"EPHEMERIS_TYPE":0,"CLASSIFICATION_TYPE":"U","NORAD_CAT_ID":27632,"ELEMENT_SET_NO":999,"REV_AT_EPOCH":4341,"BSTAR":0,"MEAN_MOTION_DOT":-7.4e-7,"MEAN_MOTION_DDOT":0},{"OBJECT_NAME":"CORIOLIS","OBJECT_ID":"2003-001A","EPOCH":"2026-04-01T00:53:58.879392","MEAN_MOTION":14.19921712,"ECCENTRICITY":0.0015131,"INCLINATION":98.7157,"RA_OF_ASC_NODE":99.0932,"ARG_OF_PERICENTER":76.5762,"MEAN_ANOMALY":283.71,"EPHEMERIS_TYPE":0,"CLASSIFICATION_TYPE":"U","NORAD_CAT_ID":27640,"ELEMENT_SET_NO":999,"REV_AT_EPOCH":20327,"BSTAR":0.00010911,"MEAN_MOTION_DOT":1.88e-6,"MEAN_MOTION_DDOT":0},{"OBJECT_NAME":"SORCE","OBJECT_ID":"2003-004A","EPOCH":"2026-04-01T02:07:22.475712","MEAN_MOTION":15.03271719,"ECCENTRICITY":0.0018056,"INCLINATION":39.9926,"RA_OF_ASC_NODE":341.4113,"ARG_OF_PERICENTER":222.3919,"MEAN_ANOMALY":137.548,"EPHEMERIS_TYPE":0,"CLASSIFICATION_TYPE":"U","NORAD_CAT_ID":27651,"ELEMENT_SET_NO":999,"REV_AT_EPOCH":26029,"BSTAR":0.00034384,"MEAN_MOTION_DOT":4.61e-5,"MEAN_MOTION_DDOT":0},{"OBJECT_NAME":"NAVSTAR 51 (USA 166)","OBJECT_ID":"2003-005A","EPOCH":"2026-03-31T08:19:35.819904","MEAN_MOTION":2.00564767,"ECCENTRICITY":0.014851,"INCLINATION":54.9001,"RA_OF_ASC_NODE":218.0599,"ARG_OF_PERICENTER":52.8714,"MEAN_ANOMALY":322.3869,"EPHEMERIS_TYPE":0,"CLASSIFICATION_TYPE":"U","NORAD_CAT_ID":27663,"ELEMENT_SET_NO":999,"REV_AT_EPOCH":16975,"BSTAR":0,"MEAN_MOTION_DOT":-3.9e-7,"MEAN_MOTION_DDOT":0},{"OBJECT_NAME":"USA 167","OBJECT_ID":"2003-008A","EPOCH":"2026-04-01T03:05:09.101184","MEAN_MOTION":1.0026971,"ECCENTRICITY":0.0005659,"INCLINATION":10.8107,"RA_OF_ASC_NODE":44.0876,"ARG_OF_PERICENTER":298.3821,"MEAN_ANOMALY":131.3426,"EPHEMERIS_TYPE":0,"CLASSIFICATION_TYPE":"U","NORAD_CAT_ID":27691,"ELEMENT_SET_NO":999,"REV_AT_EPOCH":600,"BSTAR":0,"MEAN_MOTION_DOT":0,"MEAN_MOTION_DDOT":0},{"OBJECT_NAME":"NAVSTAR 52 (USA 168)","OBJECT_ID":"2003-010A","EPOCH":"2026-03-30T01:46:01.817760","MEAN_MOTION":1.94743043,"ECCENTRICITY":0.0004297,"INCLINATION":54.859,"RA_OF_ASC_NODE":328.1394,"ARG_OF_PERICENTER":350.1635,"MEAN_ANOMALY":228.9664,"EPHEMERIS_TYPE":0,"CLASSIFICATION_TYPE":"U","NORAD_CAT_ID":27704,"ELEMENT_SET_NO":999,"REV_AT_EPOCH":16837,"BSTAR":0,"MEAN_MOTION_DOT":-8.1e-7,"MEAN_MOTION_DDOT":0},{"OBJECT_NAME":"USA 169 (MILSTAR-2 4)","OBJECT_ID":"2003-012A","EPOCH":"2026-04-01T03:21:41.167584","MEAN_MOTION":1.00272731,"ECCENTRICITY":0.0101624,"INCLINATION":12.2348,"RA_OF_ASC_NODE":30.459,"ARG_OF_PERICENTER":5.0049,"MEAN_ANOMALY":356.61,"EPHEMERIS_TYPE":0,"CLASSIFICATION_TYPE":"U","NORAD_CAT_ID":27711,"ELEMENT_SET_NO":999,"REV_AT_EPOCH":3218,"BSTAR":0,"MEAN_MOTION_DOT":-2.73e-6,"MEAN_MOTION_DDOT":0},{"OBJECT_NAME":"ASIASAT 4","OBJECT_ID":"2003-014A","EPOCH":"2026-04-01T04:22:51.612384","MEAN_MOTION":1.00270121,"ECCENTRICITY":0.0002672,"INCLINATION":4.5079,"RA_OF_ASC_NODE":76.6969,"ARG_OF_PERICENTER":301.0757,"MEAN_ANOMALY":25.0235,"EPHEMERIS_TYPE":0,"CLASSIFICATION_TYPE":"U","NORAD_CAT_ID":27718,"ELEMENT_SET_NO":999,"REV_AT_EPOCH":4452,"BSTAR":0,"MEAN_MOTION_DOT":-2.29e-6,"MEAN_MOTION_DDOT":0},{"OBJECT_NAME":"HELLAS-SAT 2","OBJECT_ID":"2003-020A","EPOCH":"2026-03-31T21:05:55.245696","MEAN_MOTION":1.0027228,"ECCENTRICITY":0.0006121,"INCLINATION":7.1641,"RA_OF_ASC_NODE":68.7953,"ARG_OF_PERICENTER":265.8998,"MEAN_ANOMALY":161.0129,"EPHEMERIS_TYPE":0,"CLASSIFICATION_TYPE":"U","NORAD_CAT_ID":27811,"ELEMENT_SET_NO":999,"REV_AT_EPOCH":4207,"BSTAR":0,"MEAN_MOTION_DOT":-9.0e-7,"MEAN_MOTION_DDOT":0},{"OBJECT_NAME":"THURAYA-2","OBJECT_ID":"2003-026A","EPOCH":"2026-03-31T19:48:19.473696","MEAN_MOTION":1.00274075,"ECCENTRICITY":0.0003482,"INCLINATION":8.7223,"RA_OF_ASC_NODE":32.2781,"ARG_OF_PERICENTER":330.9891,"MEAN_ANOMALY":167.0177,"EPHEMERIS_TYPE":0,"CLASSIFICATION_TYPE":"U","NORAD_CAT_ID":27825,"ELEMENT_SET_NO":999,"REV_AT_EPOCH":8357,"BSTAR":0,"MEAN_MOTION_DOT":1.17e-6,"MEAN_MOTION_DDOT":0},{"OBJECT_NAME":"OPTUS C1","OBJECT_ID":"2003-028B","EPOCH":"2026-04-01T04:22:51.612384","MEAN_MOTION":1.0027315,"ECCENTRICITY":0.0006273,"INCLINATION":6.6985,"RA_OF_ASC_NODE":70.3295,"ARG_OF_PERICENTER":300.9421,"MEAN_ANOMALY":39.7137,"EPHEMERIS_TYPE":0,"CLASSIFICATION_TYPE":"U","NORAD_CAT_ID":27831,"ELEMENT_SET_NO":999,"REV_AT_EPOCH":5228,"BSTAR":0,"MEAN_MOTION_DOT":-1.57e-6,"MEAN_MOTION_DDOT":0}