COSMOS 2390             
1 27464U 02036A   26091.19388038  .00000022  00000+0  85614-4 0  9993
2 27464  82.4862  33.0897 0026666  67.1360 293.2532 12.44620974 78093
COSMOS 2391             
1 27465U 02036B   26091.23051644  .00000026  00000+0  11419-3 0  9994
2 27465  82.4865  29.6318 0027496  61.4488 298.9355 12.44943765 78277
INTELSAT 906 (IS-906)   
1 27513U 02041A   26090.90889025  .00000006  00000+0  00000+0 0  9997
2 27513   5.6070  73.8570 0003321 305.6770 201.0888  1.00271417 86256
LATINSAT B              
1 27606U 02058B   26091.17136808  .00000843  00000+0  13273-3 0  9991
2 27606  64.5529 126.6927 0086334 285.0205  74.1355 14.76910329250726
SAUDISAT 1C (SO-50)     
1 27607U 02058C   26091.14314608  .00001917  00000+0  24289-3 0  9997
2 27607  64.5556   7.3260 0075451 276.5367  82.7154 14.82870952253037
LATINSAT A              
1 27612U 02058H   26090.59735720  .00001711  00000+0  21052-3 0  9990
2 27612  64.5545 202.5431 0056124 259.6266  99.8512 14.85326578256107
NIMIQ 2                 
1 27632U 02062A   26090.94581042 -.00000074  00000+0  00000+0 0  9990
2 27632   9.2693  57.6983 0006565 314.0084  48.9007  1.00272192 43415
CORIOLIS                
1 27640U 03001A   26091.03748703  .00000188  00000+0  10911-3 0  9994
2 27640  98.7157  99.0932 0015131  76.5762 283.7100 14.19921712203276
SORCE                   
1 27651U 03004A   26091.08845458  .00004610  00000+0  34384-3 0  9993
2 27651  39.9926 341.4113 0018056 222.3919 137.5480 15.03271719260299
NAVSTAR 51 (USA 166)    
1 27663U 03005A   26090.34694236 -.00000039  00000+0  00000+0 0  9997
2 27663  54.9001 218.0599 0148510  52.8714 322.3869  2.00564767169753
USA 167                 
1 27691U 03008A   26091.12857756  .00000000  00000+0  00000+0 0  9993
2 27691  10.8107  44.0876 0005659 298.3821 131.3426  1.00269710  6003
NAVSTAR 52 (USA 168)    
1 27704U 03010A   26089.07363215 -.00000081  00000+0  00000+0 0  9994
2 27704  54.8590 328.1394 0004297 350.1635 228.9664  1.94743043168375
USA 169 (MILSTAR-2 4)   
1 27711U 03012A   26091.14005981 -.00000273  00000+0  00000+0 0  9991
2 27711  12.2348  30.4590 0101624   5.0049 356.6100  1.00272731 32181
ASIASAT 4               
1 27718U 03014A   26091.18254181 -.00000229  00000+0  00000+0 0  9993
2 27718   4.5079  76.6969 0002672 301.0757  25.0235  1.00270121 44521
HELLAS-SAT 2            
1 27811U 03020A   26090.87911164 -.00000090  00000+0  00000+0 0  9996
2 27811   7.1641  68.7953 0006121 265.8998 161.0129  1.00272280 42070
THURAYA-2               
1 27825U 03026A   26090.82522539  .00000117  00000+0  00000+0 0  9995
2 27825   8.7223  32.2781 0003481 330.9891 167.0177  1.00274075 83578
OPTUS C1                
1 27831U 03028B   26091.18254181 -.00000157  00000+0  00000+0 0  9994
2 27831   6.6985  70.3295 0006273 300.9421  39.7137  1.00273150 52286
